{
  "type": "FeatureCollection",
  "features": [
    {
      "type": "Feature",
      "properties": {
        "norad_id": 38091,
        "name": "BEIDOU-2 G5 (C05)",
        "group": "gnss",
        "lat": 1.9828849074638921,
        "lon": 109.48788470840445,
        "alt_km": 35840.39618404641,
        "timestamp": "2025-12-18T21:31:51.242299+00:00",
        "meta_object_name": "BEIDOU-2 G5 (C05)",
        "meta_object_id": "2012-008A",
        "meta_epoch": "2025-12-18T01:35:25.082592",
        "meta_mean_motion": 1.00268084,
        "meta_eccentricity": 0.00129788,
        "meta_inclination": 3.1222,
        "meta_ra_of_asc_node": 70.6932,
        "meta_arg_of_pericenter": 231.0982,
        "meta_mean_anomaly": 227.7978,
        "meta_ephemeris_type": 0,
        "meta_classification_type": "U",
        "meta_norad_cat_id": 38091,
        "meta_element_set_no": 999,
        "meta_rev_at_epoch": 5055,
        "meta_bstar": 0,
        "meta_mean_motion_dot": 7.9e-07,
        "meta_mean_motion_ddot": 0,
        "tle_line1": "1 38091U 12008A   25352.06626253  .00000079  00000+0  00000+0 0  9993",
        "tle_line2": "2 38091   3.1222  70.6932 0012978 231.0982 227.7978  1.00268084 50558"
      },
      "geometry": {
        "type": "Point",
        "coordinates": [
          109.48788470840445,
          1.9828849074638921
        ]
      }
    },
    {
      "type": "Feature",
      "properties": {
        "norad_id": 38250,
        "name": "BEIDOU-2 M3 (C11)",
        "group": "gnss",
        "lat": 55.5354339250112,
        "lon": 31.24730188800061,
        "alt_km": 21588.438812347467,
        "timestamp": "2025-12-18T21:31:51.242310+00:00",
        "meta_object_name": "BEIDOU-2 M3 (C11)",
        "meta_object_id": "2012-018A",
        "meta_epoch": "2025-12-17T03:50:10.506912",
        "meta_mean_motion": 1.86229968,
        "meta_eccentricity": 0.00242614,
        "meta_inclination": 55.9161,
        "meta_ra_of_asc_node": 311.0085,
        "meta_arg_of_pericenter": 274.7282,
        "meta_mean_anomaly": 84.9799,
        "meta_ephemeris_type": 0,
        "meta_classification_type": "U",
        "meta_norad_cat_id": 38250,
        "meta_element_set_no": 999,
        "meta_rev_at_epoch": 9255,
        "meta_bstar": 0,
        "meta_mean_motion_dot": -9.2e-07,
        "meta_mean_motion_ddot": 0,
        "tle_line1": "1 38250U 12018A   25351.15984383 -.00000092  00000+0  00000+0 0  9997",
        "tle_line2": "2 38250  55.9161 311.0085 0024261 274.7282  84.9799  1.86229968 92550"
      },
      "geometry": {
        "type": "Point",
        "coordinates": [
          31.24730188800061,
          55.5354339250112
        ]
      }
    },
    {
      "type": "Feature",
      "properties": {
        "norad_id": 38251,
        "name": "BEIDOU-2 M4 (C12)",
        "group": "gnss",
        "lat": 39.280326527214164,
        "lon": 96.41317510465267,
        "alt_km": 21560.153639499647,
        "timestamp": "2025-12-18T21:31:51.242321+00:00",
        "meta_object_name": "BEIDOU-2 M4 (C12)",
        "meta_object_id": "2012-018B",
        "meta_epoch": "2025-12-18T03:58:46.977600",
        "meta_mean_motion": 1.86229645,
        "meta_eccentricity": 0.00154499,
        "meta_inclination": 55.8165,
        "meta_ra_of_asc_node": 310.203,
        "meta_arg_of_pericenter": 278.2427,
        "meta_mean_anomaly": 81.5679,
        "meta_ephemeris_type": 0,
        "meta_classification_type": "U",
        "meta_norad_cat_id": 38251,
        "meta_element_set_no": 999,
        "meta_rev_at_epoch": 9257,
        "meta_bstar": 0,
        "meta_mean_motion_dot": -8.6e-07,
        "meta_mean_motion_ddot": 0,
        "tle_line1": "1 38251U 12018B   25352.16582150 -.00000086  00000+0  00000+0 0  9999",
        "tle_line2": "2 38251  55.8165 310.2030 0015449 278.2427  81.5679  1.86229645 92577"
      },
      "geometry": {
        "type": "Point",
        "coordinates": [
          96.41317510465267,
          39.280326527214164
        ]
      }
    },
    {
      "type": "Feature",
      "properties": {
        "norad_id": 38652,
        "name": "SES-5 (EGNOS/PRN 136)",
        "group": "gnss",
        "lat": 0.07470824467463974,
        "lon": 55.68766575360979,
        "alt_km": 35793.386367695355,
        "timestamp": "2025-12-18T21:31:51.242333+00:00",
        "meta_object_name": "SES-5 (EGNOS/PRN 136)",
        "meta_object_id": "2012-036A",
        "meta_epoch": "2025-12-18T04:46:38.871264",
        "meta_mean_motion": 1.00270078,
        "meta_eccentricity": 0.00018232,
        "meta_inclination": 0.0561,
        "meta_ra_of_asc_node": 307.0471,
        "meta_arg_of_pericenter": 315.6922,
        "meta_mean_anomaly": 260.9647,
        "meta_ephemeris_type": 0,
        "meta_classification_type": "U",
        "meta_norad_cat_id": 38652,
        "meta_element_set_no": 999,
        "meta_rev_at_epoch": 4264,
        "meta_bstar": 0,
        "meta_mean_motion_dot": 5.9e-07,
        "meta_mean_motion_ddot": 0,
        "tle_line1": "1 38652U 12036A   25352.19906101  .00000059  00000+0  00000+0 0  9992",
        "tle_line2": "2 38652   0.0561 307.0471 0001823 315.6922 260.9647  1.00270078 42647"
      },
      "geometry": {
        "type": "Point",
        "coordinates": [
          55.68766575360979,
          0.07470824467463974
        ]
      }
    },
    {
      "type": "Feature",
      "properties": {
        "norad_id": 38775,
        "name": "BEIDOU-2 M6 (C14)",
        "group": "gnss",
        "lat": -29.271209788275097,
        "lon": 47.02066164704696,
        "alt_km": 21501.956539173098,
        "timestamp": "2025-12-18T21:31:51.242345+00:00",
        "meta_object_name": "BEIDOU-2 M6 (C14)",
        "meta_object_id": "2012-050B",
        "meta_epoch": "2025-12-16T19:16:00.374304",
        "meta_mean_motion": 1.86230897,
        "meta_eccentricity": 0.00113573,
        "meta_inclination": 56.3818,
        "meta_ra_of_asc_node": 68.9326,
        "meta_arg_of_pericenter": 343.3915,
        "meta_mean_anomaly": 16.5942,
        "meta_ephemeris_type": 0,
        "meta_classification_type": "U",
        "meta_norad_cat_id": 38775,
        "meta_element_set_no": 999,
        "meta_rev_at_epoch": 8991,
        "meta_bstar": 0,
        "meta_mean_motion_dot": -7.7e-07,
        "meta_mean_motion_ddot": 0,
        "tle_line1": "1 38775U 12050B   25350.80278211 -.00000077  00000+0  00000+0 0  9995",
        "tle_line2": "2 38775  56.3818  68.9326 0011357 343.3915  16.5942  1.86230897 89910"
      },
      "geometry": {
        "type": "Point",
        "coordinates": [
          47.02066164704696,
          -29.271209788275097
        ]
      }
    },
    {
      "type": "Feature",
      "properties": {
        "norad_id": 38779,
        "name": "GSAT-10 (GAGAN/PRN 128)",
        "group": "gnss",
        "lat": -0.03990914144500292,
        "lon": 133.73469855956327,
        "alt_km": 35775.59059757928,
        "timestamp": "2025-12-18T21:31:51.242357+00:00",
        "meta_object_name": "GSAT-10 (GAGAN/PRN 128)",
        "meta_object_id": "2012-051B",
        "meta_epoch": "2025-12-18T01:42:24.413760",
        "meta_mean_motion": 1.00272578,
        "meta_eccentricity": 0.00024776,
        "meta_inclination": 0.0781,
        "meta_ra_of_asc_node": 265.611,
        "meta_arg_of_pericenter": 219.0678,
        "meta_mean_anomaly": 70.8845,
        "meta_ephemeris_type": 0,
        "meta_classification_type": "U",
        "meta_norad_cat_id": 38779,
        "meta_element_set_no": 999,
        "meta_rev_at_epoch": 4828,
        "meta_bstar": 0,
        "meta_mean_motion_dot": -1.4e-06,
        "meta_mean_motion_ddot": 0,
        "tle_line1": "1 38779U 12051B   25352.07111590 -.00000140  00000+0  00000+0 0  9998",
        "tle_line2": "2 38779   0.0781 265.6110 0002477 219.0678  70.8845  1.00272578 48282"
      },
      "geometry": {
        "type": "Point",
        "coordinates": [
          133.73469855956327,
          -0.03990914144500292
        ]
      }
    },
    {
      "type": "Feature",
      "properties": {
        "norad_id": 38833,
        "name": "GPS BIIF-3  (PRN 24)",
        "group": "gnss",
        "lat": 35.8790193226992,
        "lon": -176.70960229353426,
        "alt_km": 19730.917012238024,
        "timestamp": "2025-12-18T21:31:51.242369+00:00",
        "meta_object_name": "GPS BIIF-3  (PRN 24)",
        "meta_object_id": "2012-053A",
        "meta_epoch": "2025-12-17T20:05:06.382752",
        "meta_mean_motion": 2.00565081,
        "meta_eccentricity": 0.0176009,
        "meta_inclination": 53.5589,
        "meta_ra_of_asc_node": 151.0299,
        "meta_arg_of_pericenter": 64.0689,
        "meta_mean_anomaly": 297.7246,
        "meta_ephemeris_type": 0,
        "meta_classification_type": "U",
        "meta_norad_cat_id": 38833,
        "meta_element_set_no": 999,
        "meta_rev_at_epoch": 9580,
        "meta_bstar": 0,
        "meta_mean_motion_dot": 6.4e-07,
        "meta_mean_motion_ddot": 0,
        "tle_line1": "1 38833U 12053A   25351.83687943  .00000064  00000+0  00000+0 0  9998",
        "tle_line2": "2 38833  53.5589 151.0299 0176009  64.0689 297.7246  2.00565081 95801"
      },
      "geometry": {
        "type": "Point",
        "coordinates": [
          -176.70960229353426,
          35.8790193226992
        ]
      }
    }
  ]
}